{
  "type": "FeatureCollection",
  "features": [
    {
      "type": "Feature",
      "properties": {
        "norad_id": 38091,
        "name": "BEIDOU-2 G5 (C05)",
        "group": "gnss",
        "lat": -0.2263252094082508,
        "lon": -105.4944994784949,
        "alt_km": 35749.509249978,
        "timestamp": "2025-12-26T06:43:29.753362+00:00",
        "meta_object_name": "BEIDOU-2 G5 (C05)",
        "meta_object_id": "2012-008A",
        "meta_epoch": "2025-12-25T21:54:09.656928",
        "meta_mean_motion": 1.00270052,
        "meta_eccentricity": 0.00131298,
        "meta_inclination": 3.1399,
        "meta_ra_of_asc_node": 70.6602,
        "meta_arg_of_pericenter": 232.1831,
        "meta_mean_anomaly": 179.0905,
        "meta_ephemeris_type": 0,
        "meta_classification_type": "U",
        "meta_norad_cat_id": 38091,
        "meta_element_set_no": 999,
        "meta_rev_at_epoch": 5063,
        "meta_bstar": 0,
        "meta_mean_motion_dot": 7.8e-07,
        "meta_mean_motion_ddot": 0,
        "tle_line1": "1 38091U 12008A   25359.91261177  .00000078  00000+0  00000+0 0  9993",
        "tle_line2": "2 38091   3.1399  70.6602 0013129 232.1831 179.0905  1.00270052 50637"
      },
      "geometry": {
        "type": "Point",
        "coordinates": [
          -105.4944994784949,
          -0.2263252094082508
        ]
      }
    },
    {
      "type": "Feature",
      "properties": {
        "norad_id": 38250,
        "name": "BEIDOU-2 M3 (C11)",
        "group": "gnss",
        "lat": -4.414571072751858,
        "lon": -52.308231213849595,
        "alt_km": 21516.222267087764,
        "timestamp": "2025-12-26T06:43:29.753378+00:00",
        "meta_object_name": "BEIDOU-2 M3 (C11)",
        "meta_object_id": "2012-018A",
        "meta_epoch": "2025-12-24T03:22:03.617760",
        "meta_mean_motion": 1.86230154,
        "meta_eccentricity": 0.00241099,
        "meta_inclination": 55.9106,
        "meta_ra_of_asc_node": 310.7747,
        "meta_arg_of_pericenter": 275.3713,
        "meta_mean_anomaly": 84.3565,
        "meta_ephemeris_type": 0,
        "meta_classification_type": "U",
        "meta_norad_cat_id": 38250,
        "meta_element_set_no": 999,
        "meta_rev_at_epoch": 9268,
        "meta_bstar": 0,
        "meta_mean_motion_dot": -5.3e-07,
        "meta_mean_motion_ddot": 0,
        "tle_line1": "1 38250U 12018A   25358.14031965 -.00000053  00000+0  00000+0 0  9999",
        "tle_line2": "2 38250  55.9106 310.7747 0024109 275.3713  84.3565  1.86230154 92685"
      },
      "geometry": {
        "type": "Point",
        "coordinates": [
          -52.308231213849595,
          -4.414571072751858
        ]
      }
    },
    {
      "type": "Feature",
      "properties": {
        "norad_id": 38251,
        "name": "BEIDOU-2 M4 (C12)",
        "group": "gnss",
        "lat": 32.263226033799434,
        "lon": -24.7000615678282,
        "alt_km": 21544.528107392005,
        "timestamp": "2025-12-26T06:43:29.753401+00:00",
        "meta_object_name": "BEIDOU-2 M4 (C12)",
        "meta_object_id": "2012-018B",
        "meta_epoch": "2025-12-25T03:30:42.765120",
        "meta_mean_motion": 1.86229477,
        "meta_eccentricity": 0.00149056,
        "meta_inclination": 55.8105,
        "meta_ra_of_asc_node": 309.9689,
        "meta_arg_of_pericenter": 280.9074,
        "meta_mean_anomaly": 78.9304,
        "meta_ephemeris_type": 0,
        "meta_classification_type": "U",
        "meta_norad_cat_id": 38251,
        "meta_element_set_no": 999,
        "meta_rev_at_epoch": 9270,
        "meta_bstar": 0,
        "meta_mean_motion_dot": -5.3e-07,
        "meta_mean_motion_ddot": 0,
        "tle_line1": "1 38251U 12018B   25359.14632830 -.00000053  00000+0  00000+0 0  9999",
        "tle_line2": "2 38251  55.8105 309.9689 0014905 280.9074  78.9304  1.86229477 92703"
      },
      "geometry": {
        "type": "Point",
        "coordinates": [
          -24.7000615678282,
          32.263226033799434
        ]
      }
    },
    {
      "type": "Feature",
      "properties": {
        "norad_id": 38652,
        "name": "SES-5 (EGNOS/PRN 136)",
        "group": "gnss",
        "lat": -0.055835232202092126,
        "lon": -159.14977637262157,
        "alt_km": 35783.60301830781,
        "timestamp": "2025-12-26T06:43:29.753415+00:00",
        "meta_object_name": "SES-5 (EGNOS/PRN 136)",
        "meta_object_id": "2012-036A",
        "meta_epoch": "2025-12-25T13:05:27.031200",
        "meta_mean_motion": 1.00270144,
        "meta_eccentricity": 0.0001889,
        "meta_inclination": 0.0568,
        "meta_ra_of_asc_node": 305.917,
        "meta_arg_of_pericenter": 323.6268,
        "meta_mean_anomaly": 26.1022,
        "meta_ephemeris_type": 0,
        "meta_classification_type": "U",
        "meta_norad_cat_id": 38652,
        "meta_element_set_no": 999,
        "meta_rev_at_epoch": 4271,
        "meta_bstar": 0,
        "meta_mean_motion_dot": 5.5e-07,
        "meta_mean_motion_ddot": 0,
        "tle_line1": "1 38652U 12036A   25359.54545175  .00000055  00000+0  00000+0 0  9994",
        "tle_line2": "2 38652   0.0568 305.9170 0001889 323.6268  26.1022  1.00270144 42712"
      },
      "geometry": {
        "type": "Point",
        "coordinates": [
          -159.14977637262157,
          -0.055835232202092126
        ]
      }
    },
    {
      "type": "Feature",
      "properties": {
        "norad_id": 38775,
        "name": "BEIDOU-2 M6 (C14)",
        "group": "gnss",
        "lat": -42.3406175769921,
        "lon": -74.11384942012432,
        "alt_km": 21543.650922635785,
        "timestamp": "2025-12-26T06:43:29.753427+00:00",
        "meta_object_name": "BEIDOU-2 M6 (C14)",
        "meta_object_id": "2012-050B",
        "meta_epoch": "2025-12-24T07:41:05.368128",
        "meta_mean_motion": 1.86230801,
        "meta_eccentricity": 0.00114872,
        "meta_inclination": 56.388,
        "meta_ra_of_asc_node": 68.6832,
        "meta_arg_of_pericenter": 343.1884,
        "meta_mean_anomaly": 16.8281,
        "meta_ephemeris_type": 0,
        "meta_classification_type": "U",
        "meta_norad_cat_id": 38775,
        "meta_element_set_no": 999,
        "meta_rev_at_epoch": 9005,
        "meta_bstar": 0,
        "meta_mean_motion_dot": -2.4e-07,
        "meta_mean_motion_ddot": 0,
        "tle_line1": "1 38775U 12050B   25358.32020102 -.00000024  00000+0  00000+0 0  9996",
        "tle_line2": "2 38775  56.3880  68.6832 0011487 343.1884  16.8281  1.86230801 90056"
      },
      "geometry": {
        "type": "Point",
        "coordinates": [
          -74.11384942012432,
          -42.3406175769921
        ]
      }
    },
    {
      "type": "Feature",
      "properties": {
        "norad_id": 38779,
        "name": "GSAT-10 (GAGAN/PRN 128)",
        "group": "gnss",
        "lat": -0.004000192065482515,
        "lon": -81.06706513633739,
        "alt_km": 35794.5983267072,
        "timestamp": "2025-12-26T06:43:29.753439+00:00",
        "meta_object_name": "GSAT-10 (GAGAN/PRN 128)",
        "meta_object_id": "2012-051B",
        "meta_epoch": "2025-12-25T21:36:38.577600",
        "meta_mean_motion": 1.0027083,
        "meta_eccentricity": 0.00021016,
        "meta_inclination": 0.0603,
        "meta_ra_of_asc_node": 261.7681,
        "meta_arg_of_pericenter": 219.4325,
        "meta_mean_anomaly": 20.6441,
        "meta_ephemeris_type": 0,
        "meta_classification_type": "U",
        "meta_norad_cat_id": 38779,
        "meta_element_set_no": 999,
        "meta_rev_at_epoch": 4836,
        "meta_bstar": 0,
        "meta_mean_motion_dot": -1.43e-06,
        "meta_mean_motion_ddot": 0,
        "tle_line1": "1 38779U 12051B   25359.90044650 -.00000143  00000+0  00000+0 0  9992",
        "tle_line2": "2 38779   0.0603 261.7681 0002101 219.4325  20.6441  1.00270830 48365"
      },
      "geometry": {
        "type": "Point",
        "coordinates": [
          -81.06706513633739,
          -0.004000192065482515
        ]
      }
    },
    {
      "type": "Feature",
      "properties": {
        "norad_id": 38833,
        "name": "GPS BIIF-3  (PRN 24)",
        "group": "gnss",
        "lat": -18.782496043292205,
        "lon": 136.12468236914836,
        "alt_km": 20158.464590661155,
        "timestamp": "2025-12-26T06:43:29.753451+00:00",
        "meta_object_name": "GPS BIIF-3  (PRN 24)",
        "meta_object_id": "2012-053A",
        "meta_epoch": "2025-12-24T07:38:21.199488",
        "meta_mean_motion": 2.00565058,
        "meta_eccentricity": 0.01760755,
        "meta_inclination": 53.5598,
        "meta_ra_of_asc_node": 150.7645,
        "meta_arg_of_pericenter": 64.1634,
        "meta_mean_anomaly": 297.6191,
        "meta_ephemeris_type": 0,
        "meta_classification_type": "U",
        "meta_norad_cat_id": 38833,
        "meta_element_set_no": 999,
        "meta_rev_at_epoch": 9593,
        "meta_bstar": 0,
        "meta_mean_motion_dot": 8.3e-07,
        "meta_mean_motion_ddot": 0,
        "tle_line1": "1 38833U 12053A   25358.31830092  .00000083  00000+0  00000+0 0  9994",
        "tle_line2": "2 38833  53.5598 150.7645 0176075  64.1634 297.6191  2.00565058 95932"
      },
      "geometry": {
        "type": "Point",
        "coordinates": [
          136.12468236914836,
          -18.782496043292205
        ]
      }
    }
  ]
}